*******************************************************************************
Ephemeris / WWW_USER Fri Mar  7 10:12:43 2025 Pasadena, USA      / Horizons    
*******************************************************************************
Target body name: (2018 PN20)                     {source: JPL#3}
Center body name: Earth (399)                     {source: DE441}
Center-site name: Mauna Kea
*******************************************************************************
Start time      : A.D. 2019-Jan-19 04:15:00.0000 UT      
Stop  time      : A.D. 2019-Jan-19 16:49:00.0000 UT      
Step-size       : 1 minutes
*******************************************************************************
Target pole/equ : undefined
Target radii    : undefined                                                    
Center geodetic : 204.5278, 19.8260847, 4.21024   {E-lon(deg),Lat(deg),Alt(km)}
Center cylindric: 204.5278, 6006.35451, 2151.0229 {E-lon(deg),Dxy(km),Dz(km)}
Center pole/equ : ITRF93                          {East-longitude positive}
Center radii    : 6378.137, 6378.137, 6356.752 km {Equator_a, b, pole_c}       
Target primary  : Sun
Vis. interferer : MOON (R_eq= 1737.400) km        {source: DE441}
Rel. light bend : Sun                             {source: DE441}
Rel. lght bnd GM: 1.3271E+11 km^3/s^2                                          
Small-body perts: Yes                             {source: SB441-N16}
Atmos refraction: NO (AIRLESS)
RA format       : HMS
Time format     : CAL 
Calendar mode   : Mixed Julian/Gregorian
RTS-only print  : NO       
EOP file        : eop.250306.p250602                                           
EOP coverage    : DATA-BASED 1962-JAN-20 TO 2025-MAR-06. PREDICTS-> 2025-JUN-01
Units conversion: 1 au= 149597870.700 km, c= 299792.458 km/s, 1 day= 86400.0 s 
Table cut-offs 1: Elevation (-90.0deg=NO ),Airmass (>38.000=NO), Daylight (YES)
Table cut-offs 2: Solar elongation (  0.0,180.0=NO ),Local Hour Angle( 0.0=NO )
Table cut-offs 3: RA/DEC angular rate (     0.0=NO )                           
*******************************************************************************
Initial IAU76/J2000 heliocentric ecliptic osculating elements (au, days, deg.):
  EPOCH=  2458343.5 ! 2018-Aug-13.00 (TDB)         Residual RMS= .1225         
   EC= .3775096637251725   QR= 1.051585063958075   TP= 2458346.3972912203      
   OM= 142.6884316149991   W=  180.4368328240348   IN= 18.91630320954361       
  Equivalent ICRF heliocentric cartesian coordinates (au, au/d):
   X= 8.077039416640637E-01  Y=-6.245728834467501E-01  Z=-2.534674905132982E-01
  VX= 1.177737749455786E-02 VY= 1.576958466977457E-02 VZ=-1.142216194306418E-04
Asteroid physical parameters (km, seconds, rotational period in hours):        
   GM= n.a.                RAD= n.a.               ROTPER= n.a.                
   H= 25.1                 G= .150                 B-V= n.a.                   
                           ALBEDO= n.a.            STYP= n.a.                  
*******************************************************************************
 Date__(UT)__HR:MN     R.A._________(ICRF)_________DEC
******************************************************
$$SOE
 2019-Jan-19 10:24  m  03 09 47.346548 -08 06 41.53485
 2019-Jan-19 10:25  m  03 09 47.396999 -08 06 40.53526
 2019-Jan-19 10:26  m  03 09 47.447459 -08 06 39.53568
 2019-Jan-19 10:27  m  03 09 47.497928 -08 06 38.53610
 2019-Jan-19 10:28  m  03 09 47.548405 -08 06 37.53652
 2019-Jan-19 10:29  m  03 09 47.598892 -08 06 36.53695
 2019-Jan-19 10:30  m  03 09 47.649387 -08 06 35.53737
 2019-Jan-19 10:31  m  03 09 47.699891 -08 06 34.53779
 2019-Jan-19 10:32  m  03 09 47.750404 -08 06 33.53822
 2019-Jan-19 10:33  m  03 09 47.800926 -08 06 32.53865
 2019-Jan-19 10:34  m  03 09 47.851457 -08 06 31.53908
 2019-Jan-19 10:35  m  03 09 47.901997 -08 06 30.53951
 2019-Jan-19 10:36  m  03 09 47.952546 -08 06 29.53994
 2019-Jan-19 10:37  m  03 09 48.003103 -08 06 28.54037
 2019-Jan-19 10:38  m  03 09 48.053670 -08 06 27.54081
 2019-Jan-19 10:39  m  03 09 48.104246 -08 06 26.54124
 2019-Jan-19 10:40  m  03 09 48.154830 -08 06 25.54168
 2019-Jan-19 10:41  m  03 09 48.205424 -08 06 24.54213
 2019-Jan-19 10:42  m  03 09 48.256027 -08 06 23.54257
 2019-Jan-19 10:43  m  03 09 48.306638 -08 06 22.54302
 2019-Jan-19 10:44  m  03 09 48.357259 -08 06 21.54346
 2019-Jan-19 10:45  m  03 09 48.407889 -08 06 20.54391
 2019-Jan-19 10:46  m  03 09 48.458527 -08 06 19.54437
 2019-Jan-19 10:47  m  03 09 48.509175 -08 06 18.54482
 2019-Jan-19 10:48  m  03 09 48.559832 -08 06 17.54528
 2019-Jan-19 10:49  m  03 09 48.610498 -08 06 16.54574
 2019-Jan-19 10:50  m  03 09 48.661173 -08 06 15.54621
 2019-Jan-19 10:51  m  03 09 48.711857 -08 06 14.54667
 2019-Jan-19 10:52  m  03 09 48.762550 -08 06 13.54714
 2019-Jan-19 10:53  m  03 09 48.813252 -08 06 12.54761
 2019-Jan-19 10:54  m  03 09 48.863963 -08 06 11.54809
 2019-Jan-19 10:55  m  03 09 48.914683 -08 06 10.54857
 2019-Jan-19 10:56  m  03 09 48.965413 -08 06 09.54905
 2019-Jan-19 10:57  m  03 09 49.016151 -08 06 08.54954
 2019-Jan-19 10:58  m  03 09 49.066899 -08 06 07.55003
 2019-Jan-19 10:59  m  03 09 49.117656 -08 06 06.55052
 2019-Jan-19 11:00  m  03 09 49.168422 -08 06 05.55101
 2019-Jan-19 11:01  m  03 09 49.219197 -08 06 04.55151
 2019-Jan-19 11:02  m  03 09 49.269982 -08 06 03.55202
 2019-Jan-19 11:03  m  03 09 49.320775 -08 06 02.55252
 2019-Jan-19 11:04  m  03 09 49.371578 -08 06 01.55303
 2019-Jan-19 11:05  m  03 09 49.422389 -08 06 00.55355
 2019-Jan-19 11:06  m  03 09 49.473210 -08 05 59.55407
 2019-Jan-19 11:07  m  03 09 49.524040 -08 05 58.55459
 2019-Jan-19 11:08  m  03 09 49.574880 -08 05 57.55512
 2019-Jan-19 11:09  m  03 09 49.625728 -08 05 56.55565
 2019-Jan-19 11:10  m  03 09 49.676586 -08 05 55.55619
 2019-Jan-19 11:11  m  03 09 49.727453 -08 05 54.55673
 2019-Jan-19 11:12  m  03 09 49.778329 -08 05 53.55727
 2019-Jan-19 11:13  m  03 09 49.829214 -08 05 52.55782
 2019-Jan-19 11:14  m  03 09 49.880109 -08 05 51.55838
 2019-Jan-19 11:15  m  03 09 49.931013 -08 05 50.55893
 2019-Jan-19 11:16  m  03 09 49.981926 -08 05 49.55950
 2019-Jan-19 11:17  m  03 09 50.032848 -08 05 48.56007
 2019-Jan-19 11:18  m  03 09 50.083779 -08 05 47.56064
 2019-Jan-19 11:19  m  03 09 50.134720 -08 05 46.56122
 2019-Jan-19 11:20  m  03 09 50.185670 -08 05 45.56180
 2019-Jan-19 11:21  m  03 09 50.236629 -08 05 44.56239
 2019-Jan-19 11:22  m  03 09 50.287598 -08 05 43.56299
 2019-Jan-19 11:23  m  03 09 50.338575 -08 05 42.56359
 2019-Jan-19 11:24  m  03 09 50.389562 -08 05 41.56419
 2019-Jan-19 11:25  m  03 09 50.440558 -08 05 40.56480
 2019-Jan-19 11:26  m  03 09 50.491564 -08 05 39.56542
 2019-Jan-19 11:27  m  03 09 50.542578 -08 05 38.56604
 2019-Jan-19 11:28  m  03 09 50.593602 -08 05 37.56667
 2019-Jan-19 11:29  m  03 09 50.644635 -08 05 36.56730
 2019-Jan-19 11:30  m  03 09 50.695678 -08 05 35.56794
 2019-Jan-19 11:31  m  03 09 50.746729 -08 05 34.56859
 2019-Jan-19 11:32  m  03 09 50.797790 -08 05 33.56924
 2019-Jan-19 11:33  m  03 09 50.848860 -08 05 32.56990
 2019-Jan-19 11:34  m  03 09 50.899940 -08 05 31.57057
 2019-Jan-19 11:35  m  03 09 50.951028 -08 05 30.57124
 2019-Jan-19 11:36  m  03 09 51.002126 -08 05 29.57191
 2019-Jan-19 11:37  m  03 09 51.053234 -08 05 28.57260
 2019-Jan-19 11:38  m  03 09 51.104350 -08 05 27.57329
 2019-Jan-19 11:39  s  03 09 51.155476 -08 05 26.57399
 2019-Jan-19 11:40  m  03 09 51.206611 -08 05 25.57469
 2019-Jan-19 11:41  m  03 09 51.257755 -08 05 24.57540
 2019-Jan-19 11:42  m  03 09 51.308909 -08 05 23.57612
 2019-Jan-19 11:43  m  03 09 51.360071 -08 05 22.57684
 2019-Jan-19 11:44  m  03 09 51.411243 -08 05 21.57758
 2019-Jan-19 11:45  m  03 09 51.462425 -08 05 20.57831
 2019-Jan-19 11:46  m  03 09 51.513615 -08 05 19.57906
 2019-Jan-19 11:47  m  03 09 51.564815 -08 05 18.57981
 2019-Jan-19 11:48  m  03 09 51.616024 -08 05 17.58058
 2019-Jan-19 11:49  m  03 09 51.667243 -08 05 16.58134
 2019-Jan-19 11:50  m  03 09 51.718470 -08 05 15.58212
 2019-Jan-19 11:51  m  03 09 51.769707 -08 05 14.58290
 2019-Jan-19 11:52  m  03 09 51.820953 -08 05 13.58370
 2019-Jan-19 11:53  m  03 09 51.872208 -08 05 12.58449
 2019-Jan-19 11:54  m  03 09 51.923473 -08 05 11.58530
 2019-Jan-19 11:55  m  03 09 51.974747 -08 05 10.58612
 2019-Jan-19 11:56  m  03 09 52.026030 -08 05 09.58694
 2019-Jan-19 11:57  m  03 09 52.077322 -08 05 08.58777
 2019-Jan-19 11:58  m  03 09 52.128623 -08 05 07.58861
 2019-Jan-19 11:59  m  03 09 52.179934 -08 05 06.58946
 2019-Jan-19 12:00  m  03 09 52.231254 -08 05 05.59032
 2019-Jan-19 12:01  m  03 09 52.282583 -08 05 04.59118
 2019-Jan-19 12:02  m  03 09 52.333922 -08 05 03.59205
 2019-Jan-19 12:03  m  03 09 52.385269 -08 05 02.59294
 2019-Jan-19 12:04  m  03 09 52.436626 -08 05 01.59383
 2019-Jan-19 12:05  m  03 09 52.487992 -08 05 00.59472
 2019-Jan-19 12:06  m  03 09 52.539367 -08 04 59.59563
 2019-Jan-19 12:07  m  03 09 52.590751 -08 04 58.59655
 2019-Jan-19 12:08  m  03 09 52.642145 -08 04 57.59748
 2019-Jan-19 12:09  m  03 09 52.693548 -08 04 56.59841
 2019-Jan-19 12:10  m  03 09 52.744960 -08 04 55.59936
 2019-Jan-19 12:11  m  03 09 52.796381 -08 04 54.60031
 2019-Jan-19 12:12  m  03 09 52.847811 -08 04 53.60127
 2019-Jan-19 12:13  m  03 09 52.899250 -08 04 52.60224
 2019-Jan-19 12:14  m  03 09 52.950699 -08 04 51.60323
 2019-Jan-19 12:15  m  03 09 53.002157 -08 04 50.60422
 2019-Jan-19 12:16  m  03 09 53.053624 -08 04 49.60522
 2019-Jan-19 12:17  m  03 09 53.105100 -08 04 48.60623
 2019-Jan-19 12:18  m  03 09 53.156585 -08 04 47.60725
 2019-Jan-19 12:19  m  03 09 53.208079 -08 04 46.60828
 2019-Jan-19 12:20  m  03 09 53.259582 -08 04 45.60932
 2019-Jan-19 12:21  m  03 09 53.311095 -08 04 44.61037
 2019-Jan-19 12:22  m  03 09 53.362616 -08 04 43.61143
 2019-Jan-19 12:23  m  03 09 53.414147 -08 04 42.61250
 2019-Jan-19 12:24  m  03 09 53.465687 -08 04 41.61358
 2019-Jan-19 12:25  m  03 09 53.517236 -08 04 40.61467
 2019-Jan-19 12:26  m  03 09 53.568793 -08 04 39.61577
